364P/PANSTARRS,e,12.1417,46.1964,212.0012,2.879154,0.2017468,0.72228243,200.6700,03/15.0/2021,2000,g 17.0,2.0
# From MPC111775
365P/PANSTARRS,e,9.8296,87.3142,66.2740,3.176716,0.1740750,0.57656167,196.1850,03/15.0/2021,2000,g 17.0,4.0
# From MPC114610
366P/Spacewatch,e,8.8591,70.7573,153.1499,3.495658,0.1508032,0.34833405,146.0063,03/15.0/2021,2000,g 15.0,4.0
# From MPC112395
367P/Catalina,e,8.4628,58.7196,172.9147,3.505529,0.1501668,0.28033015,149.8630,03/15.0/2021,2000,g 17.5,2.0
# From MPC114610
368P/NEAT,e,15.4819,257.9510,118.7846,5.526869,0.0758552,0.62634066,69.2140,03/15.0/2021,2000,g 14.0,4.0
# From MPC114610
369P/Hill,e,10.3129,47.2976,13.1886,4.384800,0.1073444,0.55434442,94.6669,03/15.0/2021,2000,g 15.0,4.0
# From MPC114610
370P/NEAT,e,19.4032,55.1233,356.6865,6.435390,0.0603729,0.61452053,60.9472,03/15.0/2021,2000,g 13.0,4.0
# From MPC114610
371P/LINEAR-Skiff,e,17.3774,67.3072,308.4571,4.181161,0.1152813,0.47657563,102.8462,03/15.0/2021,2000,g 16.0,4.0
# From MPEC 2020-K19
372P/McNaught,e,9.5100,325.8161,27.2605,4.503972,0.1031123,0.15269088,90.2562,03/15.0/2021,2000,g 13.5,4.0
# From MPC114610
373P/Rinner,e,13.7606,231.9482,221.1145,3.804032,0.1328427,0.39217050,93.8130,03/15.0/2021,2000,g 14.5,4.0
# From MPC114610
374P/Larson,e,10.7627,7.9122,51.5033,4.974092,0.0888451,0.46245087,70.5706,03/15.0/2021,2000,g 14.0,4.0
# From MPC114610
375P/Hill,e,17.3612,359.9436,119.4679,5.557351,0.0752319,0.65861734,61.3086,03/15.0/2021,2000,g 16.0,4.0
# From MPEC 2020-W26
376P/LONEOS,e,1.1924,314.8176,284.9091,5.846295,0.0697241,0.51767461,37.2699,03/15.0/2021,2000,g 12.5,4.0
# From MPC115888
377P/Scotti,e,9.0230,226.0599,355.0330,6.711307,0.0566883,0.25246296,13.9493,03/15.0/2021,2000,g  9.5,4.0
# From MPEC 2019-TG9
378P/McNaught,e,19.0753,94.4745,193.9658,6.387684,0.0610505,0.47082413,8.8961,03/15.0/2021,2000,g 12.0,4.0
# From MPC115889
379P/Spacewatch,e,12.4111,183.8440,31.0833,3.523684,0.1490077,0.33966414,88.1788,03/15.0/2021,2000,g 15.0,4.0
# From MPEC 2020-KB7
380P/PANSTARRS,e,8.2834,132.9829,89.0509,4.525590,0.1023744,0.33188036,66.5494,03/15.0/2021,2000,g 12.5,4.0
# From MPEC 2019-TG9
381P/LINEAR-Spacewatch,e,28.3753,173.7751,173.1527,7.121833,0.0518581,0.68180757,27.7431,03/15.0/2021,2000,g 17.5,2.0
# From MPC115889
382P/Larson,e,7.7851,175.7348,173.7164,6.338409,0.0617638,0.30664681,336.6186,03/15.0/2021,2000,g  8.0,4.0
# From MPC118844
383P/Christensen,e,12.3210,207.8766,133.6671,3.544969,0.1476677,0.59959443,74.6774,03/15.0/2021,2000,g 18.0,4.0
# From MPEC 2020-W26
384P/Kowalski,e,7.2833,354.2270,37.6262,2.901222,0.1994493,0.61550382,103.8171,03/15.0/2021,2000,g 19.5,4.0
# From MPEC 2020-C98
385P/Hill,e,16.8287,357.0634,44.3276,4.288326,0.1109871,0.40141711,60.7293,03/15.0/2021,2000,g 13.0,4.0
# From MPEC 2021-BE3
386P/PANSTARRS,e,15.2296,134.9480,353.2372,4.057405,0.1205956,0.41634425,25.0458,03/15.0/2021,2000,g 14.5,4.0
# From MPEC 2020-C98
387P/Boattini,e,8.9180,259.3243,162.7746,4.799071,0.0937494,0.73605050,52.1063,03/15.0/2021,2000,g 15.0,4.0
# From MPEC 2020-HN5
388P/Gibbs,e,23.8656,37.0440,42.3735,5.244886,0.0820540,0.61797312,49.2698,03/15.0/2021,2000,g 13.0,4.0
# From MPC118845
389P/Siding Spring,e,160.0667,218.8507,249.2955,5.626254,0.0738542,0.70434194,32.6274,03/15.0/2021,2000,g 16.0,4.0
# From MPEC 2021-BE3
390P/Gibbs,e,18.5609,152.2755,232.3489,5.802540,0.0705142,0.70706893,25.2252,03/15.0/2021,2000,g 12.0,4.0
# From MPEC 2021-BE3
391P/Kowalski,e,21.2762,124.7299,186.9063,4.678157,0.0974074,0.12074458,106.2173,03/15.0/2021,2000,g  8.0,4.0
# From MPEC 2020-HN5
392P/LINEAR,e,4.9300,24.8812,71.9738,6.146990,0.0646711,0.68280390,22.5187,03/15.0/2021,2000,g 14.5,4.0
# From MPEC 2021-BE3
393P/Spacewatch-Hill,e,16.7923,36.4187,328.1714,4.785807,0.0941394,0.12047475,47.7168,03/15.0/2021,2000,g 11.0,4.0
# From MPEC 2020-KB7
394P/PANSTARRS,e,8.5296,98.1248,54.5184,4.332302,0.1093015,0.36794825,51.4428,03/15.0/2021,2000,g 16.0,2.4
# From MPEC 2021-BE3
395P/Catalina-NEAT,e,3.2784,223.7812,89.7997,6.534407,0.0590058,0.37795099,342.8258,03/15.0/2021,2000,g 10.0,4.0
# From MPEC 2020-KB7
396P/,e,5.4363,136.6631,8.6193,6.819898,0.0553398,0.41605213,31.2270,03/15.0/2021,2000,g 12.0,4.0
# From MPEC 2021-BE3
397P/Lemmon,e,10.9283,8.2065,14.4220,3.826941,0.1316517,0.40499864,35.3692,03/15.0/2021,2000,g 12.0,4.0
# From MPEC 2021-BE3
398P/Boattini,e,11.0154,127.4623,320.2381,3.128367,0.1781261,0.58263172,13.9387,03/15.0/2021,2000,g 15.5,4.0
# From MPEC 2021-BE3
399P/PANSTARRS,e,13.3193,207.1465,214.2915,3.788706,0.1336496,0.44676023,350.8360,03/15.0/2021,2000,g 14.0,4.0
# From MPEC 2021-BE3
400P/PANSTARRS,e,10.9291,176.3974,238.7856,3.559216,0.1467819,0.40904271,4.8301,03/15.0/2021,2000,g 15.5,2.8
# From MPEC 2021-BE3
401P/McNaught,e,12.8041,359.8885,309.3119,5.771869,0.0710771,0.58013806,32.9357,03/15.0/2021,2000,g 12.5,4.0
# From MPEC 2021-BE3
402P/LINEAR,e,30.8530,123.0883,326.7525,7.008103,0.0531255,0.43810768,345.4068,03/15.0/2021,2000,g  8.0,4.0
# From MPEC 2021-BE3
403P/Catalina,e,12.3205,163.8138,277.6693,5.426748,0.0779641,0.50334594,14.0056,03/15.0/2021,2000,g 12.0,4.0
# From MPEC 2020-W26
404P/Bressi,e,9.7790,262.3492,160.0126,4.845485,0.0924056,0.13707839,276.1702,03/15.0/2021,2000,g 10.0,4.0
# From MPEC 2021-BE3
405P/Lemmon,e,9.3651,3.3124,112.2466,3.609600,0.1437194,0.68919173,11.5958,03/15.0/2021,2000,g 17.5,4.0
# From MPEC 2020-W26
406P/Gibbs,e,1.2135,11.4724,352.3677,3.573587,0.1458974,0.54194326,26.3035,03/15.0/2021,2000,g 17.0,4.0
# From MPEC 2021-BE3
407P/PANSTARRS-Fuls,e,4.8946,80.8330,92.4623,3.456792,0.1533537,0.38487916,62.5541,03/15.0/2021,2000,g 14.0,4.0
# From MPEC 2020-V78
408P/Novichonok-Gerke,e,19.3036,189.4970,225.7386,4.768510,0.0946521,0.27166987,306.5196,03/15.0/2021,2000,g 10.5,4.0
# From MPEC 2021-BE3
409P/LONEOS-Hill,e,17.1187,143.6712,15.1352,6.049789,0.0662360,0.71006561,3.0357,03/15.0/2021,2000,g 14.0,4.0
# From MPEC 2021-BE3
410P/,e,9.3938,139.9810,313.1021,6.629391,0.0577422,0.51021560,354.1911,03/15.0/2021,2000,g 12.5,4.0
# From MPEC 2021-BE3
411P/Christensen,e,12.3772,77.6730,46.6896,5.818827,0.0702184,0.58088569,3.4771,03/15.0/2021,2000,g 13.5,4.0
# From MPEC 2021-BE3
412P/WISE,e,8.9312,0.8489,155.9171,3.109897,0.1797153,0.47987475,17.9047,03/15.0/2021,2000,g 17.0,4.0
# From MPEC 2021-BE3
413P/Larson,e,15.9770,39.0260,186.0345,3.711065,0.1378657,0.42337904,342.4646,03/15.0/2021,2000,g 14.0,4.0
# From MPEC 2021-BE3
414P/STEREO,e,23.3838,257.7896,210.7326,2.795088,0.2109167,0.81167878,10.2537,03/15.0/2021,2000,g 19.0,4.0
# From MPEC 2021-BE3
415P/Tenagra,e,31.7902,160.2940,346.3098,4.116139,0.1180236,0.19486247,3.2522,03/15.0/2021,2000,g 12.0,4.0
# From MPEC 2021-BE3
416P/Scotti,e,3.3613,355.8120,134.5268,4.013831,0.1225647,0.45439990,3.3709,03/15.0/2021,2000,g 15.5,4.0
# From MPEC 2021-BE3
417P/NEOWISE,e,8.1309,111.3510,129.4565,3.347826,0.1609013,0.55433270,353.8581,03/15.0/2021,2000,g 16.5,4.0
# From MPEC 2021-BE3
418P/LINEAR,e,5.7976,277.6622,307.0911,5.082593,0.0860154,0.66495805,341.3733,03/15.0/2021,2000,g 13.0,4.0
# From MPC107687
1I/`Oumuamua,h,09/09.4886/2017,122.6778,24.5997,241.6845,1.199252,0.255240,2000,23.0,2.0
# From MPEC 2020-K19
2I/Borisov,h,12/08.5549/2019,44.0527,308.1480,209.1251,3.356636,2.006548,2000,11.0,4.0
